*******************************************************************************
 Revised: October 01, 2020            Neptune                               899
 
 PHYSICAL DATA (update 2020-Oct-01):
  Mass x10^24 (kg)      =                 Density (g/cm^3)       =  1.638
  Equat. radius (1 bar) = 24766+-15 km    Volume, 10^10 km^3     = 6254     
  Vol. mean radius (km) = 24624+-21       Polar radius (km)      = 24342+-30
  Geometric Albedo      = 0.41            Flattening             =  0.0171
  Sid. rot. period (III)= 16.11+-0.01 hr  Sid. rot. rate (rad/s) =  0.000108338 
  Mean solar day, h     =~16.11 h         
  GM (km^3/s^2)         = 6835099.97      GM 1-sigma (km^3/s^2)  = +-10 
  Equ. grav, ge (m/s^2) = 11.15           Pol. grav, gp (m/s^2)  = 11.41+-0.03
  Visual magnitude V(1,0)= -6.87
  Vis. mag. (opposition)=  +7.84          Obliquity to orbit     = 28.32 deg
  Sidereal orbit period = 164.788501027 y Sidereal orbit period  = 60189 d
  Mean daily motion     = 0.006020076dg/d Mean orbit velocity    =  5.43 km/s 
  Atmos. temp. (1 bar)  =  72+-2 K        Escape speed (1 bar)  =  23.5 km/s     
  Aroche(ice)/Rp        =  2.98           Hill's sphere rad., Rp = 4700
                                 Perihelion  Aphelion    Mean
  Solar Constant (W/m^2)         1.54        1.49        1.51
  Maximum Planetary IR (W/m^2)   0.52        0.52        0.52
  Minimum Planetary IR (W/m^2)   0.52        0.52        0.52
*******************************************************************************
 
 
*******************************************************************************
Ephemeris / WWW_USER Sat Mar 13 00:16:57 2021 Pasadena, USA      / Horizons
*******************************************************************************
Target body name: Neptune (899)                   {source: nep096}
Center body name: Solar System Barycenter (0)     {source: DE431mx}
Center-site name: BODY CENTER
*******************************************************************************
Start time      : A.D. 2020-Apr-01 00:00:00.0000 TDB
Stop  time      : A.D. 2021-Apr-01 00:00:00.0000 TDB
Step-size       : 60 minutes
*******************************************************************************
Center geodetic : 0.00000000,0.00000000,0.0000000 {E-lon(deg),Lat(deg),Alt(km)}
Center cylindric: 0.00000000,0.00000000,0.0000000 {E-lon(deg),Dxy(km),Dz(km)}
Center radii    : (undefined)                                                  
Output units    : KM-S
Output type     : GEOMETRIC cartesian states
Output format   : 3 (position, velocity, LT, range, range-rate)
Reference frame : Ecliptic of J2000.0
*******************************************************************************
JDTDB
   X     Y     Z
   VX    VY    VZ
   LT    RG    RR
*******************************************************************************
$$SOE
2459198.500000000 = A.D. 2020-Dec-15 00:00:00.0000 TDB 
 X = 4.404888028152655E+09 Y =-7.896784044662825E+08 Z =-8.525322156483060E+07
 VX= 9.228377474399989E-01 VY= 5.382807103781707E+00 VZ=-1.314154203978566E-01
 LT= 1.493007650315842E+04 RG= 4.475924333009907E+09 RR=-3.898323088244556E-02
2459198.541666667 = A.D. 2020-Dec-15 01:00:00.0000 TDB 
 X = 4.404891350387658E+09 Y =-7.896590263122133E+08 Z =-8.525369467168868E+07
 VX= 9.228483567770470E-01 VY= 5.382833861538284E+00 VZ=-1.314219184936347E-01
 LT= 1.493007603521483E+04 RG= 4.475924192723949E+09 RR=-3.895338477516155E-02
2459198.583333333 = A.D. 2020-Dec-15 02:00:00.0000 TDB 
 X = 4.404894672660815E+09 Y =-7.896396480638149E+08 Z =-8.525416780407488E+07
 VX= 9.228589579229327E-01 VY= 5.382859504708644E+00 VZ=-1.314296090444096E-01
 LT= 1.493007556763083E+04 RG= 4.475924052545792E+09 RR=-3.892332700776498E-02
2459198.625000000 = A.D. 2020-Dec-15 03:00:00.0000 TDB 
 X = 4.404897994972219E+09 Y =-7.896202697251694E+08 Z =-8.525464096634793E+07
 VX= 9.228696112732435E-01 VY= 5.382883988649755E+00 VZ=-1.314385278141337E-01
 LT= 1.493007510040940E+04 RG= 4.475923912476332E+09 RR=-3.889298960499139E-02
2459198.666666667 = A.D. 2020-Dec-15 04:00:00.0000 TDB 
 X = 4.404901317322112E+09 Y =-7.896008913005714E+08 Z =-8.525511416298503E+07
 VX= 9.228803427171706E-01 VY= 5.382907243365850E+00 VZ=-1.314487045657615E-01
 LT= 1.493007463355416E+04 RG= 4.475923772516650E+09 RR=-3.886233419303689E-02
2459198.708333333 = A.D. 2020-Dec-15 05:00:00.0000 TDB 
 X = 4.404904639710783E+09 Y =-7.895815127945873E+08 Z =-8.525558739855713E+07
 VX= 9.228911541198315E-01 VY= 5.382929189785096E+00 VZ=-1.314601613531214E-01
 LT= 1.493007416706903E+04 RG= 4.475923632667926E+09 RR=-3.883134458817930E-02
2459198.750000000 = A.D. 2020-Dec-15 06:00:00.0000 TDB 
 X = 4.404907962138500E+09 Y =-7.895621342120672E+08 Z =-8.525606067769903E+07
 VX= 9.229020309865511E-01 VY= 5.382949751269565E+00 VZ=-1.314729114018354E-01
 LT= 1.493007370095804E+04 RG= 4.475923492931369E+09 RR=-3.880002130612300E-02
2459198.791666667 = A.D. 2020-Dec-15 07:00:00.0000 TDB 
 X = 4.404911284605454E+09 Y =-7.895427555581206E+08 Z =-8.525653400507611E+07
 VX= 9.229129478395440E-01 VY= 5.382968861213405E+00 VZ=-1.314869584868428E-01
 LT= 1.493007323522514E+04 RG= 4.475923353308158E+09 RR=-3.876837762277314E-02
2459198.833333333 = A.D. 2020-Dec-15 08:00:00.0000 TDB 
 X = 4.404914607111733E+09 Y =-7.895233768380716E+08 Z =-8.525700738534993E+07
 VX= 9.229238717777130E-01 VY= 5.382986467492108E+00 VZ=-1.315022967226755E-01
 LT= 1.493007276987404E+04 RG= 4.475923213799407E+09 RR=-3.873643685951350E-02
2459198.875000000 = A.D. 2020-Dec-15 09:00:00.0000 TDB 
 X = 4.404917929657294E+09 Y =-7.895039980574026E+08 Z =-8.525748082314378E+07
 VX= 9.229347646336282E-01 VY= 5.383002534438704E+00 VZ=-1.315189106908510E-01
 LT= 1.493007230490812E+04 RG= 4.475923074406131E+09 RR=-3.870423060625620E-02
2459198.916666667 = A.D. 2020-Dec-15 10:00:00.0000 TDB 
 X = 4.404921252241950E+09 Y =-7.894846192216945E+08 Z =-8.525795432300860E+07
 VX= 9.229455840881708E-01 VY= 5.383017042940059E+00 VZ=-1.315367758365300E-01
 LT= 1.493007184033035E+04 RG= 4.475922935129218E+09 RR=-3.867179763351240E-02
2459198.958333333 = A.D. 2020-Dec-15 11:00:00.0000 TDB 
 X = 4.404924574865357E+09 Y =-7.894652403365687E+08 Z =-8.525842788939178E+07
 VX= 9.229562840528194E-01 VY= 5.383029989168597E+00 VZ=-1.315558590739832E-01
 LT= 1.493007137614318E+04 RG= 4.475922795969407E+09 RR=-3.863918328053404E-02
2459199.000000000 = A.D. 2020-Dec-15 12:00:00.0000 TDB 
 X = 4.404927897526994E+09 Y =-7.894458614076364E+08 Z =-8.525890152660692E+07
 VX= 9.229668145821285E-01 VY= 5.383041382391572E+00 VZ=-1.315761195473639E-01
 LT= 1.493007091234849E+04 RG= 4.475922656927256E+09 RR=-3.860643914019567E-02
2459199.041666667 = A.D. 2020-Dec-15 13:00:00.0000 TDB 
 X = 4.404931220226153E+09 Y =-7.894264824404557E+08 Z =-8.525937523880810E+07
 VX= 9.229771215345862E-01 VY= 5.383051242231350E+00 VZ=-1.315975094998647E-01
 LT= 1.493007044894749E+04 RG= 4.475922518003131E+09 RR=-3.857362289268073E-02
2459199.083333333 = A.D. 2020-Dec-15 14:00:00.0000 TDB 
 X = 4.404934542961929E+09 Y =-7.894071034405001E+08 Z =-8.525984902996641E+07
 VX= 9.229871461587512E-01 VY= 5.383059595686301E+00 VZ=-1.316199752104710E-01
 LT= 1.493006998594068E+04 RG= 4.475922379197181E+09 RR=-3.854079816928082E-02
2459199.125000000 = A.D. 2020-Dec-15 15:00:00.0000 TDB 
 X = 4.404937865733191E+09 Y =-7.893877244131370E+08 Z =-8.526032290385020E+07
 VX= 9.229968247433598E-01 VY= 5.383066474162649E+00 VZ=-1.316434579632819E-01
 LT= 1.493006952332774E+04 RG= 4.475922240509312E+09 RR=-3.850803435464369E-02
2459199.166666667 = A.D. 2020-Dec-15 16:00:00.0000 TDB 
 X = 4.404941188538570E+09 Y =-7.893683453636165E+08 Z =-8.526079686400908E+07
 VX= 9.230060884349567E-01 VY= 5.383071910712939E+00 VZ=-1.316678950197019E-01
 LT= 1.493006906110751E+04 RG= 4.475922101939172E+09 RR=-3.847540626062771E-02
2459199.208333333 = A.D. 2020-Dec-15 17:00:00.0000 TDB 
 X = 4.404944511376442E+09 Y =-7.893489662970711E+08 Z =-8.526127091376072E+07
 VX= 9.230148632945275E-01 VY= 5.383075937626937E+00 VZ=-1.316932205687114E-01
 LT= 1.493006859927787E+04 RG= 4.475921963486129E+09 RR=-3.844299362760158E-02
2459199.250000000 = A.D. 2020-Dec-15 18:00:00.0000 TDB 
 X = 4.404947834244905E+09 Y =-7.893295872185215E+08 Z =-8.526174505618179E+07
 VX= 9.230230706356288E-01 VY= 5.383078584475378E+00 VZ=-1.317193666349565E-01
 LT= 1.493006813783574E+04 RG= 4.475921825149259E+09 RR=-3.841088042943933E-02
2459199.291666667 = A.D. 2020-Dec-15 19:00:00.0000 TDB 
 X = 4.404951157141769E+09 Y =-7.893102081328883E+08 Z =-8.526221929410195E+07
 VX= 9.230306276605900E-01 VY= 5.383079876666444E+00 VZ=-1.317462639284999E-01
 LT= 1.493006767677700E+04 RG= 4.475921686927325E+09 RR=-3.837915397675790E-02
2459199.333333333 = A.D. 2020-Dec-15 20:00:00.0000 TDB 
 X = 4.404954480064541E+09 Y =-7.892908290450104E+08 Z =-8.526269363009989E+07
 VX= 9.230374483885052E-01 VY= 5.383079834538776E+00 VZ=-1.317738426237520E-01
 LT= 1.493006721609647E+04 RG= 4.475921548818778E+09 RR=-3.834790382899073E-02
2459199.375000000 = A.D. 2020-Dec-15 21:00:00.0000 TDB 
 X = 4.404957803010408E+09 Y =-7.892714499596627E+08 Z =-8.526316806650293E+07
 VX= 9.230434448489775E-01 VY= 5.383078472983583E+00 VZ=-1.318020330584062E-01
 LT= 1.493006675578789E+04 RG= 4.475921410821737E+09 RR=-3.831722053976735E-02
2459199.416666667 = A.D. 2020-Dec-15 22:00:00.0000 TDB 
 X = 4.404961125976248E+09 Y =-7.892520708815765E+08 Z =-8.526364260538924E+07
 VX= 9.230485284988627E-01 VY= 5.383075801561676E+00 VZ=-1.318307663460585E-01
 LT= 1.493006629584391E+04 RG= 4.475921272934001E+09 RR=-3.828719427174537E-02
2459199.458333333 = A.D. 2020-Dec-15 23:00:00.0000 TDB 
 X = 4.404964448958613E+09 Y =-7.892326918154576E+08 Z =-8.526411724859083E+07
 VX= 9.230526118056411E-01 VY= 5.383071825059317E+00 VZ=-1.318599748986700E-01
 LT= 1.493006583625611E+04 RG= 4.475921135153044E+09 RR=-3.825791332653950E-02
